OBJECT_NAME,OBJECT_ID,EPOCH,MEAN_MOTION,ECCENTRICITY,INCLINATION,RA_OF_ASC_NODE,ARG_OF_PERICENTER,MEAN_ANOMALY,EPHEMERIS_TYPE,CLASSIFICATION_TYPE,NORAD_CAT_ID,ELEMENT_SET_NO,REV_AT_EPOCH,BSTAR,MEAN_MOTION_DOT,MEAN_MOTION_DDOT
DMSP 5D-3 F16 (USA 172),2003-048A,2026-06-07T07:45:47.866752,14.14482254,.00072596,98.9893,182.0863,166.1666,210.4088,0,U,28054,999,16809,.36293947E-4,.24E-6,0
METEOSAT-9 (MSG-2),2005-049B,2026-06-06T20:31:58.380384,1.00268262,.00017945,9.3374,54.2678,349.1342,205.5679,0,U,28912,999,689,0,.136E-5,0
DMSP 5D-3 F17 (USA 191),2006-050A,2026-06-07T06:28:57.263808,14.14991655,.00113266,98.7378,165.0431,84.7508,275.4958,0,U,29522,999,1102,.5296474E-4,.59E-6,0
FENGYUN 3A,2008-026A,2026-06-07T02:37:09.459264,14.19569001,.00091564,98.6882,99.1311,150.4712,209.6983,0,U,32958,999,93397,.55391012E-4,.74E-6,0
GOES 14,2009-033A,2026-06-07T05:24:51.625728,1.00114532,.0002018,1.6635,83.1645,3.1371,38.0761,0,U,35491,999,649,0,-.236E-5,0
DMSP 5D-3 F18 (USA 210),2009-057A,2026-06-07T05:46:46.905888,14.14891360,.00098837,98.9033,139.0318,281.2296,78.7766,0,U,35951,999,85818,.1682647E-3,.28E-5,0
EWS-G2 (GOES 15),2010-008A,2026-06-06T23:36:38.497824,1.00275979,.00054686,1.2489,83.0325,36.8697,193.2358,0,U,36411,999,5953,0,.33E-6,0
COMS 1,2010-032A,2026-06-03T23:47:39.107040,1.00270643,.00010162,4.7750,75.5286,4.5847,297.3769,0,U,36744,999,5095,0,-.334E-5,0
FENGYUN 3B,2010-059A,2026-06-07T06:36:15.492384,14.14840094,.00214202,98.9619,204.2474,212.7301,276.8989,0,U,37214,999,80602,.15188722E-3,.248E-5,0
SUOMI NPP,2011-061A,2026-06-07T02:52:52.947264,14.19515290,.00020708,98.7951,99.0651,28.6046,331.5243,0,U,37849,999,75701,.56257422E-4,.74E-6,0
METEOSAT-10 (MSG-3),2012-035B,2026-06-07T01:26:59.095680,1.00275746,.00016907,4.6469,61.0634,336.1678,240.1814,0,U,38552,999,5075,0,.9E-7,0
METOP-B,2012-049A,2026-06-06T23:35:20.301504,14.21429964,.00028162,98.6508,209.6852,43.2047,316.9351,0,U,38771,999,71181,.6724585E-4,.104E-5,0
INSAT-3D,2013-038B,2026-06-06T12:22:34.180896,1.00268069,.00008063,1.8977,82.6765,350.3630,137.0203,0,U,39216,999,4697,0,-.326E-5,0
FENGYUN 3C,2013-052A,2026-06-07T05:17:04.427232,14.15752879,.00156797,98.4975,132.5530,54.7851,305.4789,0,U,39260,999,65715,.72813568E-4,.102E-5,0
METEOR-M 2,2014-037A,2026-06-07T05:17:39.770880,14.21457555,.000704,98.5115,134.3126,68.4578,291.7350,0,U,40069,999,61790,-.47014243E-4,-.145E-5,0
HIMAWARI-8,2014-060A,2026-06-07T05:32:23.654976,1.00271236,.00008725,0.0201,52.7855,45.4489,21.1778,0,U,40267,999,4266,0,-.261E-5,0
FENGYUN 2G,2014-090A,2026-06-06T19:04:41.495808,1.00277925,.00033304,5.6125,72.9393,154.5057,53.5102,0,U,40367,999,4189,0,-.289E-5,0
METEOSAT-11 (MSG-4),2015-034A,2026-06-07T04:54:57.309408,1.00277204,.00016786,3.1774,71.1654,5.2854,262.3074,0,U,40732,999,711,0,.78E-6,0
ELEKTRO-L 2,2015-074A,2026-06-07T01:22:35.395104,1.00272194,.00012911,6.6683,70.6461,283.5448,267.4428,0,U,41105,999,3840,0,-.104E-5,0
SENTINEL-3A,2016-011A,2026-06-06T23:27:45.054720,14.26737178,.00013452,98.6250,225.5074,104.5544,255.5786,0,U,41335,999,53660,.65533758E-4,.115E-5,0
INSAT-3DR,2016-054A,2026-06-07T01:48:11.079936,1.00270761,.00103404,0.0796,87.7402,186.8952,81.8921,0,U,41752,999,3571,0,-.63E-6,0
HIMAWARI-9,2016-064A,2026-06-07T05:32:31.143264,1.00273426,.00008976,0.0381,173.7848,297.9883,7.7637,0,U,41836,999,3511,0,-.26E-5,0
GOES 16,2016-071A,2026-06-07T04:33:38.610144,1.00270876,.00005193,0.3142,85.6275,316.9738,176.7445,0,U,41866,999,3500,0,-.77E-6,0
FENGYUN 4A,2016-077A,2026-06-07T05:05:38.707584,1.00274846,.00082103,2.2969,80.3901,151.5662,223.8374,0,U,41882,999,3483,0,-.342E-5,0
CYGFM05,2016-078A,2026-06-07T04:10:04.256832,15.56221382,.00070527,34.9577,326.8764,47.5364,312.5956,0,U,41884,999,52719,.34746607E-3,.25237E-3,0
CYGFM04,2016-078B,2026-06-06T18:59:30.886080,15.60924335,.00060044,34.9328,297.6136,90.3195,269.8218,0,U,41885,999,52737,.3861548E-3,.33565E-3,0
CYGFM02,2016-078C,2026-06-06T17:56:48.592032,15.63814591,.00069588,34.9411,292.7401,91.2851,268.8673,0,U,41886,999,52753,.43527328E-3,.42435E-3,0
CYGFM01,2016-078D,2026-06-07T04:00:02.526624,15.56882001,.00069709,34.9408,328.0607,40.7680,319.3565,0,U,41887,999,52714,.34390139E-3,.25604E-3,0
CYGFM08,2016-078E,2026-06-06T19:45:15.298272,15.59466369,.00079226,34.9438,310.1862,71.9711,288.1877,0,U,41888,999,52735,.38066568E-3,.31293E-3,0
CYGFM07,2016-078G,2026-06-07T02:28:15.121920,15.59586778,.00063598,34.9451,296.6759,92.9078,267.2375,0,U,41890,999,52742,.37205547E-3,.30707E-3,0
CYGFM03,2016-078H,2026-06-07T01:46:25.336704,15.59579007,.00059539,34.9406,298.8090,78.4832,281.6562,0,U,41891,999,52739,.36549967E-3,.3015E-3,0
